OBJECT_NAME,OBJECT_ID,EPOCH,MEAN_MOTION,ECCENTRICITY,INCLINATION,RA_OF_ASC_NODE,ARG_OF_PERICENTER,MEAN_ANOMALY,EPHEMERIS_TYPE,CLASSIFICATION_TYPE,NORAD_CAT_ID,ELEMENT_SET_NO,REV_AT_EPOCH,BSTAR,MEAN_MOTION_DOT,MEAN_MOTION_DDOT
STARLINK-33806,2025-087AC,2026-07-15T17:28:32.731968,15.30206019,.0000758,53.1627,344.7710,104.6229,255.4856,0,U,63723,999,6880,.5233E-3,.15174E-3,0
STARLINK-11677 [DTC],2025-089A,2026-07-15T04:25:51.172320,15.70850986,.00034368,42.9992,244.0624,296.0333,64.0180,0,U,63751,999,7018,.11578415E-2,.150942E-2,0
STARLINK-11702 [DTC],2025-089B,2026-07-15T03:47:37.633344,15.70888739,.00016096,42.9985,243.8495,278.3462,81.7223,0,U,63752,999,7018,.87817297E-3,.114025E-2,0
STARLINK-11706 [DTC],2025-089C,2026-07-14T10:37:31.963584,15.70852343,.00027075,43.0023,247.9376,279.7086,80.3476,0,U,63753,999,7007,.27800722E-3,.35397E-3,0
STARLINK-11662 [DTC],2025-089D,2026-07-15T11:40:43.070304,15.70986152,.000228,42.9994,242.0178,289.4640,70.5981,0,U,63754,999,7028,.10170217E-2,.132978E-2,0
STARLINK-11681 [DTC],2025-089E,2026-07-15T11:56:00.525120,15.70846709,.00013128,42.9992,242.1019,278.6149,81.4570,0,U,63755,999,7023,.18278621E-3,.23077E-3,0
STARLINK-11688 [DTC],2025-089F,2026-07-15T11:33:04.293216,15.70831403,.00015006,42.9987,241.9728,274.2908,85.7789,0,U,63756,999,7012,.83971902E-3,.108679E-2,0
STARLINK-11676 [DTC],2025-089G,2026-07-15T04:40:57.503136,15.70842064,.00028776,42.9998,243.2492,289.6289,70.4268,0,U,63757,999,7008,.10669735E-2,.138794E-2,0
STARLINK-11705 [DTC],2025-089H,2026-07-15T04:10:33.355488,15.70924794,.00012375,42.9964,243.9717,194.7174,165.3658,0,U,63758,999,7013,.73897777E-3,.95813E-3,0
STARLINK-11703 [DTC],2025-089J,2026-07-15T11:17:47.082048,15.70922268,.00015886,43.0000,241.8873,292.3493,67.7206,0,U,63759,999,7023,.78486098E-3,.101855E-2,0
STARLINK-11701 [DTC],2025-089K,2026-07-15T04:48:36.205056,15.70834329,.00026934,42.9984,243.2902,287.0973,72.9600,0,U,63760,999,7019,.95753891E-3,.124251E-2,0
STARLINK-11660 [DTC],2025-089L,2026-07-15T03:32:19.503744,15.70895576,.00011342,42.9987,243.7596,274.4725,85.6013,0,U,63761,999,7013,.79358574E-3,.102888E-2,0
STARLINK-11699 [DTC],2025-089M,2026-07-15T04:33:29.625408,15.70951076,.00019599,42.9992,244.1010,251.9750,108.0904,0,U,63762,999,7018,.14076653E-2,.185118E-2,0
STARLINK-11693 [DTC],2025-089N,2026-07-14T10:54:07.978464,15.70877387,.00028608,43.0014,248.0246,289.9035,70.1524,0,U,63763,999,6996,.9629121E-3,.125193E-2,0
STARLINK-33760,2025-089P,2026-07-14T23:32:03.877152,15.27585183,.00015911,43.0009,46.4889,276.9939,83.0732,0,U,63764,999,6842,.32003717E-3,.8556E-4,0
STARLINK-33941,2025-089Q,2026-07-14T23:35:45.913056,15.27581690,.00011461,43.0028,46.5051,257.1664,102.9060,0,U,63765,999,6841,.29602777E-3,.7893E-4,0
STARLINK-33824,2025-089R,2026-07-14T00:27:28.556064,15.27616774,.00019377,43.0025,52.1664,246.3195,113.7454,0,U,63766,999,6827,.47829049E-3,.12937E-3,0
STARLINK-33808,2025-089S,2026-07-14T18:36:38.641536,15.27583784,.00013125,43.0028,47.5252,266.2425,93.8277,0,U,63767,999,6839,.3118193E-3,.8329E-4,0
STARLINK-33844,2025-089T,2026-07-15T00:25:31.052064,15.27590006,.00010478,43.0019,45.9030,267.2984,92.7748,0,U,63768,999,6843,.34458932E-3,.9235E-4,0
STARLINK-33907,2025-089U,2026-07-14T23:26:30.893280,15.27576155,.00007511,43.0005,46.4569,268.4414,91.6351,0,U,63769,999,6837,.10468231E-3,.2619E-4,0
STARLINK-33884,2025-089V,2026-07-15T00:27:21.828096,15.27584415,.000115,43.0006,45.9118,277.2642,82.8079,0,U,63770,999,6838,.24535015E-3,.6496E-4,0
STARLINK-33841,2025-089W,2026-07-14T23:04:18.890400,15.27582297,.00006802,43.0038,46.3361,327.4532,32.6277,0,U,63771,999,6837,.31737252E-3,.8482E-4,0
STARLINK-33769,2025-089X,2026-07-15T00:23:40.799616,15.27471363,.0002393,43.0258,45.8861,306.9733,53.0900,0,U,63773,999,6842,-.16067E-2,-.4407E-3,0
STARLINK-33914,2025-089Y,2026-07-15T00:05:50.644032,15.27588826,.00006628,43.0018,42.2980,288.9232,71.1548,0,U,63774,999,6847,.17509515E-3,.4561E-4,0
STARLINK-33932,2025-091A,2026-07-14T23:52:51.022272,15.27586620,.00009734,43.0024,53.4251,258.8323,101.2420,0,U,63775,999,6841,.35965481E-3,.965E-4,0
STARLINK-33930,2025-091B,2026-07-15T00:42:48.778272,15.27588663,.0001195,42.9958,53.6920,277.3524,82.7192,0,U,63776,999,6837,.33042694E-3,.8844E-4,0
STARLINK-33911,2025-091C,2026-07-14T23:48:42.476256,15.27584340,.00029687,43.0005,46.4384,47.8467,312.2637,0,U,63777,999,6845,.34243919E-3,.9174E-4,0
STARLINK-33938,2025-091D,2026-07-15T00:16:54.801696,15.27591419,.00012028,42.9990,53.5540,316.2652,43.8104,0,U,63778,999,6846,.31046936E-3,.8294E-4,0
STARLINK-33881,2025-091E,2026-07-15T00:52:03.741888,15.27590143,.00012733,43.0003,53.7408,274.1804,85.8902,0,U,63779,999,6837,.35867614E-3,.9624E-4,0
STARLINK-33846,2025-091F,2026-07-15T00:37:16.039776,15.27589433,.00009212,42.9899,53.6635,67.9740,292.1209,0,U,63780,999,6842,.33263796E-3,.8905E-4,0
STARLINK-33883,2025-091G,2026-07-14T07:15:59.412672,15.27581245,.0001572,42.9991,57.6882,271.6694,88.3978,0,U,63781,999,6826,.27416856E-3,.729E-4,0
STARLINK-33842,2025-091H,2026-07-15T00:11:21.276960,15.27591461,.00021166,43.0017,53.5235,268.1560,91.9049,0,U,63782,999,6846,.57372674E-3,.15565E-3,0
STARLINK-33892,2025-091J,2026-07-15T00:09:30.053376,15.27587095,.00023556,43.0035,53.5140,275.5908,84.4675,0,U,63783,999,6837,.53604804E-3,.14521E-3,0
STARLINK-33933,2025-091K,2026-07-15T00:10:53.260896,15.27592120,.00014638,43.0007,46.5659,269.3980,90.6704,0,U,63784,999,6856,.56576509E-3,.15345E-3,0
STARLINK-33923,2025-091M,2026-07-15T00:18:45.202752,15.27595676,.00016168,43.0002,53.5597,281.4939,78.5731,0,U,63786,999,6832,.61800698E-3,.16791E-3,0
STARLINK-33947,2025-091N,2026-07-15T00:50:13.831584,15.27570402,.00010538,42.9954,53.7326,268.8954,91.1777,0,U,63787,999,6837,.3680868E-3,.9878E-4,0
STARLINK-33882,2025-091P,2026-07-15T00:07:38.986176,15.27614645,.00022523,43.0046,53.4976,257.3749,102.6851,0,U,63788,999,6836,.56076194E-3,.15217E-3,0
STARLINK-33875,2025-091Q,2026-07-14T23:50:59.683776,15.27587640,.00023903,43.0096,53.4063,259.4186,100.6396,0,U,63789,999,6837,.38293267E-3,.10292E-3,0
STARLINK-33869,2025-091R,2026-07-14T23:41:46.601952,15.27550612,.00010603,43.0046,53.3605,249.9743,110.0995,0,U,63790,999,6832,.16418716E-3,.4255E-4,0
STARLINK-33935,2025-091S,2026-07-15T00:44:40.963488,15.27581062,.00020732,42.9966,53.7007,69.5180,290.5894,0,U,63791,999,6848,.32026195E-3,.8561E-4,0
STARLINK-33916,2025-091T,2026-07-15T00:39:07.786944,15.27580328,.00020466,42.9974,53.6666,69.1834,290.9237,0,U,63792,999,6837,.28247124E-3,.7519E-4,0
STARLINK-33925,2025-091U,2026-07-14T23:47:18.018528,15.27582130,.00008425,43.0023,53.3923,260.9593,99.1163,0,U,63793,999,6848,.33599468E-3,.8996E-4,0
STARLINK-33870,2025-091V,2026-07-14T23:38:03.985440,15.27567463,.00000796,42.9969,53.3447,246.0798,114.0045,0,U,63794,999,6837,.12590183E-3,.3203E-4,0
STARLINK-33867,2025-091W,2026-07-15T00:28:01.020000,15.27587987,.00009475,42.9997,53.6043,351.7089,8.3747,0,U,63795,999,6837,.31742753E-3,.8485E-4,0
STARLINK-33918,2025-091X,2026-07-15T00:29:52.122624,15.27589422,.00009343,42.9972,53.6172,9.1792,350.9077,0,U,63796,999,6842,.57369068E-3,.15563E-3,0
STARLINK-33712,2025-091Y,2026-07-15T00:21:46.866528,15.27591932,.00008156,43.0031,57.0999,330.6391,29.4415,0,U,63797,999,6833,.33263661E-3,.8906E-4,0
STARLINK-33827,2025-091Z,2026-07-15T00:13:11.987328,15.27591041,.00022813,42.9990,53.5294,261.4833,98.5760,0,U,63798,999,6837,.55179911E-3,.14958E-3,0
STARLINK-33899,2025-091AA,2026-07-15T00:02:05.577216,15.27586024,.00025812,43.0053,53.4666,250.2011,109.8562,0,U,63799,999,6848,.42667492E-3,.115E-3,0
STARLINK-33900,2025-091AB,2026-07-14T23:56:33.984384,15.27588299,.00014797,43.0032,53.4401,9.1895,350.8983,0,U,63800,999,6848,.47785392E-3,.12914E-3,0
STARLINK-33975,2025-091AC,2026-07-14T22:02:02.489568,15.27588644,.00008067,43.0054,53.6998,285.3836,74.6927,0,U,63802,999,6847,.30726564E-3,.8205E-4,0
STARLINK-33951,2025-091AD,2026-07-14T23:43:35.830560,15.27586873,.00017124,43.0024,53.3715,269.6304,90.4351,0,U,63803,999,6842,.38839835E-3,.10443E-3,0
STARLINK-33909,2025-092A,2026-07-15T08:23:08.528928,15.27619405,.00013304,42.9998,172.0179,274.4865,85.5834,0,U,63804,999,6813,.65480285E-3,.17822E-3,0
STARLINK-34029,2025-092B,2026-07-15T00:24:58.974336,15.27599883,.00021457,43.0008,173.8227,289.0662,70.9957,0,U,63805,999,6808,.13237835E-3,.3384E-4,0
STARLINK-34102,2025-092C,2026-07-15T09:48:04.108896,15.27586363,.00009928,42.9992,171.5991,277.1236,82.9503,0,U,63806,999,6819,.1933007E-3,.5062E-4,0
STARLINK-34109,2025-092D,2026-07-15T15:03:37.886976,15.27590915,.0001111,43.0009,169.7953,268.4976,91.5749,0,U,63807,999,6818,.4993E-3,.13507E-3,0
STARLINK-34091,2025-092E,2026-07-15T15:40:38.830080,15.27583716,.0001697,43.0023,169.9952,284.3471,75.7192,0,U,63808,999,6823,.32887E-3,.88E-4,0
STARLINK-34095,2025-092F,2026-07-15T06:47:09.511872,15.27575115,.00015553,43.0011,172.3800,274.9949,85.0725,0,U,63809,999,6812,.57520005E-4,.1321E-4,0
STARLINK-34127,2025-092G,2026-07-15T15:14:44.363616,15.27587205,.0000764,43.0004,169.8556,280.3533,79.7233,0,U,63810,999,6818,.4647E-3,.1255E-3,0
STARLINK-34101,2025-092J,2026-07-15T08:28:29.934336,15.27585076,.00011289,43.0001,171.1739,278.7061,81.3663,0,U,63812,999,6808,.25752998E-3,.6832E-4,0
STARLINK-34065,2025-092K,2026-07-15T08:34:44.436864,15.27583304,.00012111,42.9990,167.7001,265.1945,94.8768,0,U,63813,999,6812,.23534373E-3,.622E-4,0
STARLINK-34057,2025-092L,2026-07-15T14:56:15.251136,15.27595833,.0001322,43.0000,169.7533,266.2448,93.8252,0,U,63814,999,6818,.33904E-3,.9083E-4,0
STARLINK-34060,2025-092M,2026-07-15T14:58:04.517760,15.27587081,.0000969,42.9976,169.7675,272.2595,87.8146,0,U,63815,999,6812,.28333E-3,.7544E-4,0
STARLINK-34048,2025-092N,2026-07-15T00:21:17.033472,15.27581405,.00013096,43.0003,173.8033,269.4934,90.5768,0,U,63816,999,6813,.39117588E-3,.10518E-3,0
